start=new Date('2023-04-08T00:00:00.000Z').valueOf();
sats=[{"BSTAR":"0.00032608000000","ARG_OF_PERICENTER":"99.2168","TLE_LINE2":"2 54051  53.2160  95.0878 0001368  99.2168 260.8979 15.08828630 25733","TIME_SYSTEM":"UTC","OBJECT_TYPE":"PAYLOAD","MEAN_MOTION":"15.08828630","REF_FRAME":"TEME","PERIOD":"95.438","ELEMENT_SET_NO":"999","TLE_LINE1":"1 54051U 22136A   23097.51677756  .00004904  00000-0  32608-3 0  9993","EPHEMERIS_TYPE":"0","REV_AT_EPOCH":"2573","APOAPSIS":"540.727","MEAN_MOTION_DDOT":"0.0000000000000","MEAN_MOTION_DOT":"0.00004904","FILE":"3882626","EPOCH":"2023-04-07T12:24:09.581184","NORAD_CAT_ID":"54051","INCLINATION":"53.2160","PERIAPSIS":"538.834","MEAN_ANOMALY":"260.8979","GP_ID":"229687231","CENTER_NAME":"EARTH","RCS_SIZE":"LARGE","ECCENTRICITY":"0.00013680","DECAY_DATE":null,"SITE":"AFETR","OBJECT_ID":"2022-136A","SEMIMAJOR_AXIS":"6917.915","LAUNCH_DATE":"2022-10-20","COUNTRY_CODE":"US","RA_OF_ASC_NODE":"95.0878","CLASSIFICATION_TYPE":"U","MEAN_ELEMENT_THEORY":"SGP4","OBJECT_NAME":"STARLINK-5195"},{"FILE":"3882834","MEAN_MOTION_DOT":"-0.00000043","MEAN_MOTION_DDOT":"0.0000000000000","APOAPSIS":"540.738","NORAD_CAT_ID":"54052","EPOCH":"2023-04-07T20:43:35.738112","MEAN_ANOMALY":"268.4398","PERIAPSIS":"538.768","INCLINATION":"53.2199","GP_ID":"229692802","CENTER_NAME":"EARTH","SITE":"AFETR","DECAY_DATE":null,"ECCENTRICITY":"0.00014240","RCS_SIZE":"LARGE","COUNTRY_CODE":"US","LAUNCH_DATE":"2022-10-20","SEMIMAJOR_AXIS":"6917.888","OBJECT_ID":"2022-136B","CLASSIFICATION_TYPE":"U","RA_OF_ASC_NODE":"53.0714","OBJECT_NAME":"STARLINK-5189","MEAN_ELEMENT_THEORY":"SGP4","TLE_LINE2":"2 54052  53.2199  53.0714 0001424  91.6757 268.4398 15.08837605 26846","ARG_OF_PERICENTER":"91.6757","BSTAR":"0.00001542000000","TIME_SYSTEM":"UTC","OBJECT_TYPE":"PAYLOAD","PERIOD":"95.438","MEAN_MOTION":"15.08837605","REF_FRAME":"TEME","REV_AT_EPOCH":"2684","TLE_LINE1":"1 54052U 22136B   23097.86360808 -.00000043  00000-0  15420-4 0  9994","EPHEMERIS_TYPE":"0","ELEMENT_SET_NO":"999"},{"TLE_LINE2":"2 54053  53.2146  95.0662 0001122  92.0817 268.0303 15.08850633 25739","ARG_OF_PERICENTER":"92.0817","BSTAR":"0.00054893000000","OBJECT_TYPE":"PAYLOAD","TIME_SYSTEM":"UTC","REV_AT_EPOCH":"2573","ELEMENT_SET_NO":"999","TLE_LINE1":"1 54053U 22136C   23097.51309384  .00008462  00000-0  54893-3 0  9997","EPHEMERIS_TYPE":"0","PERIOD":"95.437","REF_FRAME":"TEME","MEAN_MOTION":"15.08850633","NORAD_CAT_ID":"54053","EPOCH":"2023-04-07T12:18:51.307776","FILE":"3882626","MEAN_MOTION_DOT":"0.00008462","MEAN_MOTION_DDOT":"0.0000000000000","APOAPSIS":"540.489","GP_ID":"229686230","CENTER_NAME":"EARTH","INCLINATION":"53.2146","PERIAPSIS":"538.937","MEAN_ANOMALY":"268.0303","COUNTRY_CODE":"US","LAUNCH_DATE":"2022-10-20","SEMIMAJOR_AXIS":"6917.848","OBJECT_ID":"2022-136C","DECAY_DATE":null,"ECCENTRICITY":"0.00011220","SITE":"AFETR","RCS_SIZE":"LARGE","OBJECT_NAME":"STARLINK-5176","MEAN_ELEMENT_THEORY":"SGP4","CLASSIFICATION_TYPE":"U","RA_OF_ASC_NODE":"95.0662"},{"OBJECT_TYPE":"PAYLOAD","TIME_SYSTEM":"UTC","ELEMENT_SET_NO":"999","TLE_LINE1":"1 54054U 22136D   23097.50573091  .00000836  00000-0  70608-4 0  9995","EPHEMERIS_TYPE":"0","REV_AT_EPOCH":"2573","MEAN_MOTION":"15.08840521","REF_FRAME":"TEME","PERIOD":"95.438","BSTAR":"0.00007060800000","ARG_OF_PERICENTER":"90.1563","TLE_LINE2":"2 54054  53.2178  95.0222 0001296  90.1563 269.9578 15.08840521 25735","OBJECT_ID":"2022-136D","SEMIMAJOR_AXIS":"6917.879","LAUNCH_DATE":"2022-10-20","COUNTRY_CODE":"US","RCS_SIZE":"LARGE","SITE":"AFETR","DECAY_DATE":null,"ECCENTRICITY":"0.00012960","MEAN_ELEMENT_THEORY":"SGP4","OBJECT_NAME":"STARLINK-5163","RA_OF_ASC_NODE":"95.0222","CLASSIFICATION_TYPE":"U","EPOCH":"2023-04-07T12:08:15.150624","NORAD_CAT_ID":"54054","APOAPSIS":"540.640","MEAN_MOTION_DDOT":"0.0000000000000","MEAN_MOTION_DOT":"0.00000836","FILE":"3882626","GP_ID":"229686480","CENTER_NAME":"EARTH","PERIAPSIS":"538.847","MEAN_ANOMALY":"269.9578","INCLINATION":"53.2178"},{"GP_ID":"229692995","CENTER_NAME":"EARTH","PERIAPSIS":"538.835","MEAN_ANOMALY":"267.9862","INCLINATION":"53.2181","NORAD_CAT_ID":"54055","EPOCH":"2023-04-07T16:59:43.067040","MEAN_MOTION_DOT":"0.00000756","FILE":"3882835","APOAPSIS":"540.671","MEAN_MOTION_DDOT":"0.0000000000000","OBJECT_NAME":"STARLINK-5158","MEAN_ELEMENT_THEORY":"SGP4","RA_OF_ASC_NODE":"94.1533","CLASSIFICATION_TYPE":"U","LAUNCH_DATE":"2022-10-20","COUNTRY_CODE":"US","OBJECT_ID":"2022-136E","SEMIMAJOR_AXIS":"6917.888","ECCENTRICITY":"0.00013270","DECAY_DATE":null,"SITE":"AFETR","RCS_SIZE":"LARGE","ARG_OF_PERICENTER":"92.1282","TLE_LINE2":"2 54055  53.2181  94.1533 0001327  92.1282 267.9862 15.08837609 26244","BSTAR":"0.00006560500000","EPHEMERIS_TYPE":"0","TLE_LINE1":"1 54055U 22136E   23097.70813735  .00000756  00000-0  65605-4 0  9992","ELEMENT_SET_NO":"999","REV_AT_EPOCH":"2624","MEAN_MOTION":"15.08837609","REF_FRAME":"TEME","PERIOD":"95.438","OBJECT_TYPE":"PAYLOAD","TIME_SYSTEM":"UTC"},{"REV_AT_EPOCH":"2571","ELEMENT_SET_NO":"999","TLE_LINE1":"1 54056U 22136F   23097.37052127  .00002271  00000-0  16075-3 0  9996","EPHEMERIS_TYPE":"0","PERIOD":"95.437","REF_FRAME":"TEME","MEAN_MOTION":"15.08841772","OBJECT_TYPE":"PAYLOAD","TIME_SYSTEM":"UTC","TLE_LINE2":"2 54056  53.2184  95.5967 0001475  92.8713 267.2448 15.08841772 25714","ARG_OF_PERICENTER":"92.8713","BSTAR":"0.00016075000000","OBJECT_NAME":"STARLINK-5226","MEAN_ELEMENT_THEORY":"SGP4","CLASSIFICATION_TYPE":"U","RA_OF_ASC_NODE":"95.5967","COUNTRY_CODE":"US","LAUNCH_DATE":"2022-10-20","SEMIMAJOR_AXIS":"6917.875","OBJECT_ID":"2022-136F","ECCENTRICITY":"0.00014750","DECAY_DATE":null,"SITE":"AFETR","RCS_SIZE":"LARGE","GP_ID":"229687478","CENTER_NAME":"EARTH","PERIAPSIS":"538.720","MEAN_ANOMALY":"267.2448","INCLINATION":"53.2184","NORAD_CAT_ID":"54056","EPOCH":"2023-04-07T08:53:33.037728","FILE":"3882626","MEAN_MOTION_DOT":"0.00002271","MEAN_MOTION_DDOT":"0.0000000000000","APOAPSIS":"540.760"},{"OBJECT_TYPE":"PAYLOAD","TIME_SYSTEM":"UTC","EPHEMERIS_TYPE":"0","TLE_LINE1":"1 54058U 22136H   23097.42843859  .00000469  00000-0  47565-4 0  9990","ELEMENT_SET_NO":"999","REV_AT_EPOCH":"2572","MEAN_MOTION":"15.08834927","REF_FRAME":"TEME","PERIOD":"95.438","BSTAR":"0.00004756500000","ARG_OF_PERICENTER":"97.0798","TLE_LINE2":"2 54058  53.2183  95.2542 0001336  97.0798 263.0346 15.08834927 25723","OBJECT_ID":"2022-136H","SEMIMAJOR_AXIS":"6917.896","LAUNCH_DATE":"2022-10-20","COUNTRY_CODE":"US","RCS_SIZE":"LARGE","SITE":"AFETR","DECAY_DATE":null,"ECCENTRICITY":"0.00013360","MEAN_ELEMENT_THEORY":"SGP4","OBJECT_NAME":"STARLINK-5167","RA_OF_ASC_NODE":"95.2542","CLASSIFICATION_TYPE":"U","EPOCH":"2023-04-07T10:16:57.094176","NORAD_CAT_ID":"54058","APOAPSIS":"540.685","MEAN_MOTION_DDOT":"0.0000000000000","MEAN_MOTION_DOT":"0.00000469","FILE":"3882626","CENTER_NAME":"EARTH","GP_ID":"229685730","PERIAPSIS":"538.837","MEAN_ANOMALY":"263.0346","INCLINATION":"53.2183"},{"EPOCH":"2023-04-07T10:22:14.885472","NORAD_CAT_ID":"54059","MEAN_MOTION_DDOT":"0.0000000000000","APOAPSIS":"540.616","FILE":"3882626","MEAN_MOTION_DOT":"0.00000153","GP_ID":"229685980","CENTER_NAME":"EARTH","PERIAPSIS":"538.860","MEAN_ANOMALY":"268.5223","INCLINATION":"53.2157","SEMIMAJOR_AXIS":"6917.873","OBJECT_ID":"2022-136J","COUNTRY_CODE":"US","LAUNCH_DATE":"2022-10-20","RCS_SIZE":"LARGE","SITE":"AFETR","DECAY_DATE":null,"ECCENTRICITY":"0.00012690","MEAN_ELEMENT_THEORY":"SGP4","OBJECT_NAME":"STARLINK-5173","CLASSIFICATION_TYPE":"U","RA_OF_ASC_NODE":"95.2738","BSTAR":"0.00002767300000","TLE_LINE2":"2 54059  53.2157  95.2738 0001269  91.5915 268.5223 15.08842390 25724","ARG_OF_PERICENTER":"91.5915","OBJECT_TYPE":"PAYLOAD","TIME_SYSTEM":"UTC","REV_AT_EPOCH":"2572","EPHEMERIS_TYPE":"0","TLE_LINE1":"1 54059U 22136J   23097.43211673  .00000153  00000-0  27673-4 0  9993","ELEMENT_SET_NO":"999","PERIOD":"95.437","REF_FRAME":"TEME","MEAN_MOTION":"15.08842390"},{"MEAN_ELEMENT_THEORY":"SGP4","OBJECT_NAME":"STARLINK-5169","RA_OF_ASC_NODE":"66.1069","CLASSIFICATION_TYPE":"U","OBJECT_ID":"2022-136K","SEMIMAJOR_AXIS":"6917.872","LAUNCH_DATE":"2022-10-20","COUNTRY_CODE":"US","RCS_SIZE":"LARGE","DECAY_DATE":null,"ECCENTRICITY":"0.00011910","SITE":"AFETR","GP_ID":"229687232","CENTER_NAME":"EARTH","PERIAPSIS":"538.913","MEAN_ANOMALY":"266.5452","INCLINATION":"53.2190","EPOCH":"2023-04-07T07:59:17.721600","NORAD_CAT_ID":"54060","APOAPSIS":"540.561","MEAN_MOTION_DDOT":"0.0000000000000","MEAN_MOTION_DOT":"0.00004980","FILE":"3882626","EPHEMERIS_TYPE":"0","TLE_LINE1":"1 54060U 22136K   23097.33284400  .00004980  00000-0  33072-3 0  9993","ELEMENT_SET_NO":"999","REV_AT_EPOCH":"2612","MEAN_MOTION":"15.08842661","REF_FRAME":"TEME","PERIOD":"95.437","OBJECT_TYPE":"PAYLOAD","TIME_SYSTEM":"UTC","BSTAR":"0.00033072000000","ARG_OF_PERICENTER":"93.5677","TLE_LINE2":"2 54060  53.2190  66.1069 0001191  93.5677 266.5452 15.08842661 26126"},{"OBJECT_TYPE":"PAYLOAD","TIME_SYSTEM":"UTC","TLE_LINE1":"1 54061U 22136L   23097.58334491 -.00011305  00000-0 -66288-3 0  9993","EPHEMERIS_TYPE":"0","ELEMENT_SET_NO":"999","REV_AT_EPOCH":"130","REF_FRAME":"TEME","MEAN_MOTION":"15.10457282","PERIOD":"95.335","BSTAR":"-0.00066288000000","ARG_OF_PERICENTER":"107.0083","TLE_LINE2":"2 54061  53.2183  59.2708 0001723 107.0083 162.1921 15.10457282  1304","OBJECT_ID":"2022-136L","SEMIMAJOR_AXIS":"6912.941","LAUNCH_DATE":"2022-10-20","COUNTRY_CODE":"US","RCS_SIZE":"LARGE","ECCENTRICITY":"0.00017230","DECAY_DATE":null,"SITE":"AFETR","MEAN_ELEMENT_THEORY":"SGP4","OBJECT_NAME":"STARLINK-5209","RA_OF_ASC_NODE":"59.2708","CLASSIFICATION_TYPE":"U","EPOCH":"2023-04-07T14:00:01.000224","NORAD_CAT_ID":"54061","APOAPSIS":"535.998","MEAN_MOTION_DDOT":"0.0000000000000","MEAN_MOTION_DOT":"-0.00011305","FILE":"3882626","CENTER_NAME":"EARTH","GP_ID":"229686978","INCLINATION":"53.2183","PERIAPSIS":"533.615","MEAN_ANOMALY":"162.1921"}];
